{
  "dataset": "map-statistical-areas",
  "collectionId": "00000000-0000-4000-8000-000000000060",
  "schemaVersion": "1.0",
  "version": "local-seed-1",
  "generatedAt": "2026-01-01T00:00:00Z",
  "itemCount": 3,
  "type": "FeatureCollection",
  "features": [
    {
      "type": "Feature",
      "id": "00000000-0000-4000-8000-000000000061",
      "properties": {
        "id": "00000000-0000-4000-8000-000000000061",
        "code": "27D8",
        "name": "ICES rectangle 27D8",
        "areaType": "ices-rectangle",
        "parentCode": null,
        "parentName": null,
        "areaKm2": 1250.5,
        "centroid": { "latitude": 50.25, "longitude": -4.5 }
      },
      "geometry": {
        "type": "Polygon",
        "coordinates": [
          [
            [-4.7, 50.1],
            [-4.7, 50.4],
            [-4.3, 50.4],
            [-4.3, 50.1],
            [-4.7, 50.1]
          ]
        ]
      }
    },
    {
      "type": "Feature",
      "id": "00000000-0000-4000-8000-000000000062",
      "properties": {
        "id": "00000000-0000-4000-8000-000000000062",
        "code": "27D86",
        "name": "ICES subrectangle 27D86",
        "areaType": "ices-subrectangle",
        "parentCode": "27D8",
        "parentName": "ICES rectangle 27D8",
        "areaKm2": 312.48,
        "centroid": { "latitude": 50.25, "longitude": -4.5 }
      },
      "geometry": {
        "type": "Polygon",
        "coordinates": [
          [
            [-4.6, 50.2],
            [-4.6, 50.3],
            [-4.4, 50.3],
            [-4.6, 50.2]
          ]
        ]
      }
    },
    {
      "type": "Feature",
      "id": "00000000-0000-4000-8000-000000000063",
      "properties": {
        "id": "00000000-0000-4000-8000-000000000063",
        "code": "27D87",
        "name": "ICES subrectangle 27D87",
        "areaType": "ices-subrectangle",
        "parentCode": "27D8",
        "parentName": "ICES rectangle 27D8",
        "areaKm2": 289.1,
        "centroid": { "latitude": 50.15, "longitude": -4.35 }
      },
      "geometry": {
        "type": "Polygon",
        "coordinates": [
          [
            [-4.45, 50.1],
            [-4.45, 50.2],
            [-4.25, 50.2],
            [-4.45, 50.1]
          ]
        ]
      }
    }
  ]
}
